GLOBALSTAR M094         
1 39074U 13005C   25213.07413355 -.00000105  00000+0 -92125-5 0  9994
2 39074  51.9967  45.4493 0000967  62.8424 297.2541 12.62263098578064
GLOBALSTAR M096         
1 39075U 13005D   25212.84967482 -.00000094  00000+0  54806-4 0  9993
2 39075  52.0073  94.6823 0000830  42.0392 318.0538 12.62266024576935
GLOBALSTAR M078         
1 39076U 13005E   25213.29851072 -.00000092  00000+0  65543-4 0  9999
2 39076  51.9852 177.7645 0000680 297.0989  62.9808 12.62259686575829
GLOBALSTAR M095         
1 39077U 13005F   25213.16616113 -.00000093  00000+0  60217-4 0  9995
2 39077  51.9781 175.3391 0000583 342.0625  18.0220 12.62268405575811
GLOBALSTAR M087         
1 52888U 22064A   25213.49822588 -.00000094  00000+0  53830-4 0  9990
2 52888  52.0015 315.7449 0000453  93.1292 266.9627 12.62299984151093
